CCSDS_OMM_VERS = 2.0
CREATION_DATE  = 
ORIGINATOR     = 

OBJECT_NAME    = COSMOS 2550
OBJECT_ID      = 2021-056A
CENTER_NAME    = EARTH
REF_FRAME      = TEME
TIME_SYSTEM    = UTC
MEAN_ELEMENT_THEORY = SGP/SGP4

EPOCH          = 2025-11-03T11:18:22.615776
MEAN_MOTION    = 15.33837542
ECCENTRICITY   = .00083282
INCLINATION    = 67.1434
RA_OF_ASC_NODE = 62.7678
ARG_OF_PERICENTER = 269.9513
MEAN_ANOMALY   = 90.0687

EPHEMERIS_TYPE = 0
CLASSIFICATION_TYPE = U
NORAD_CAT_ID   = 48865
ELEMENT_SET_NO = 999
REV_AT_EPOCH   = 24410
BSTAR          = .18707369E-3
MEAN_MOTION_DOT = .5969E-4
MEAN_MOTION_DDOT = 0

CCSDS_OMM_VERS = 2.0
CREATION_DATE  = 
ORIGINATOR     = 

OBJECT_NAME    = CZ-2C R/B
OBJECT_ID      = 2022-058K
CENTER_NAME    = EARTH
REF_FRAME      = TEME
TIME_SYSTEM    = UTC
MEAN_ELEMENT_THEORY = SGP/SGP4

EPOCH          = 2025-11-03T12:54:55.459296
MEAN_MOTION    = 15.45753342
ECCENTRICITY   = .0050083
INCLINATION    = 50.1917
RA_OF_ASC_NODE = 243.0601
ARG_OF_PERICENTER = 35.1315
MEAN_ANOMALY   = 325.2938

EPHEMERIS_TYPE = 0
CLASSIFICATION_TYPE = U
NORAD_CAT_ID   = 52794
ELEMENT_SET_NO = 999
REV_AT_EPOCH   = 19056
BSTAR          = .59832E-3
MEAN_MOTION_DOT = .30596E-3
MEAN_MOTION_DDOT = 0

CCSDS_OMM_VERS = 2.0
CREATION_DATE  = 
ORIGINATOR     = 

OBJECT_NAME    = GSLV R/B
OBJECT_ID      = 2022-138AN
CENTER_NAME    = EARTH
REF_FRAME      = TEME
TIME_SYSTEM    = UTC
MEAN_ELEMENT_THEORY = SGP/SGP4

EPOCH          = 2025-11-04T03:01:11.509824
MEAN_MOTION    = 14.95806117
ECCENTRICITY   = .001911
INCLINATION    = 87.3858
RA_OF_ASC_NODE = 208.3949
ARG_OF_PERICENTER = 245.7531
MEAN_ANOMALY   = 114.1703

EPHEMERIS_TYPE = 0
CLASSIFICATION_TYPE = U
NORAD_CAT_ID   = 54149
ELEMENT_SET_NO = 999
REV_AT_EPOCH   = 16515
BSTAR          = .34458E-3
MEAN_MOTION_DOT = .3885E-4
MEAN_MOTION_DDOT = 0

CCSDS_OMM_VERS = 2.0
CREATION_DATE  = 
ORIGINATOR     = 

OBJECT_NAME    = XRISM
OBJECT_ID      = 2023-137A
CENTER_NAME    = EARTH
REF_FRAME      = TEME
TIME_SYSTEM    = UTC
MEAN_ELEMENT_THEORY = SGP/SGP4

EPOCH          = 2025-11-03T21:37:35.624928
MEAN_MOTION    = 15.09726748
ECCENTRICITY   = .0008238
INCLINATION    = 31.0033
RA_OF_ASC_NODE = 16.1919
ARG_OF_PERICENTER = 212.8350
MEAN_ANOMALY   = 147.1776

EPHEMERIS_TYPE = 0
CLASSIFICATION_TYPE = U
NORAD_CAT_ID   = 57800
ELEMENT_SET_NO = 999
REV_AT_EPOCH   = 11875
BSTAR          = .4398E-3
MEAN_MOTION_DOT = .7369E-4
MEAN_MOTION_DDOT = 0

CCSDS_OMM_VERS = 2.0
CREATION_DATE  = 
ORIGINATOR     = 

OBJECT_NAME    = ACS3
OBJECT_ID      = 2024-077B
CENTER_NAME    = EARTH
REF_FRAME      = TEME
TIME_SYSTEM    = UTC
MEAN_ELEMENT_THEORY = SGP/SGP4

EPOCH          = 2025-11-03T22:30:15.811200
MEAN_MOTION    = 13.83072193
ECCENTRICITY   = .0039559
INCLINATION    = 97.3297
RA_OF_ASC_NODE = 272.1378
ARG_OF_PERICENTER = 30.9105
MEAN_ANOMALY   = 329.4372

EPHEMERIS_TYPE = 0
CLASSIFICATION_TYPE = U
NORAD_CAT_ID   = 59588
ELEMENT_SET_NO = 999
REV_AT_EPOCH   = 7677
BSTAR          = .93818E-2
MEAN_MOTION_DOT = .10308E-3
MEAN_MOTION_DDOT = 0

